TRANSPORTER-16 OBJECT S
1 68432U 26067S   26104.13672320  .00003309  00000+0  16656-3 0  9992
2 68432  97.4504  63.5668 0000993 192.3900 167.7310 15.17896664  2227
