{
  "norad_id": 68432,
  "name": "TRANSPORTER-16 OBJECT S",
  "history": [
    {
      "epoch": "2026-04-14T03:16:52.884480Z",
      "apogee_km": 512.8827342572922,
      "perigee_km": 511.51431362223684,
      "latitude_deg": 4.570015306025373e-05,
      "longitude_deg": 172.0289680693744,
      "height_km": 515.9534504736305,
      "semi_major_axis_km": 6890.335523939764,
      "eccentricity": 9.93e-05,
      "inclination_deg": 97.4504,
      "raan_deg": 63.5668,
      "arg_perigee_deg": 192.39,
      "mean_anomaly_deg": 167.731,
      "mean_motion_rev_day": 15.17896664
    }
  ]
}